CCSDS_OMM_VERS = 2.0
CREATION_DATE  = 
ORIGINATOR     = 

OBJECT_NAME    = DELTA 2 R/B(1)
OBJECT_ID      = 1990-008B
CENTER_NAME    = EARTH
REF_FRAME      = TEME
TIME_SYSTEM    = UTC
MEAN_ELEMENT_THEORY = SGP/SGP4

EPOCH          = 2026-02-07T01:07:40.868256
MEAN_MOTION    = 15.51735671
ECCENTRICITY   = .009533
INCLINATION    = 35.6060
RA_OF_ASC_NODE = 15.2946
ARG_OF_PERICENTER = 332.8975
MEAN_ANOMALY   = 26.6804

EPHEMERIS_TYPE = 0
CLASSIFICATION_TYPE = U
NORAD_CAT_ID   = 20453
ELEMENT_SET_NO = 999
REV_AT_EPOCH   = 92136
BSTAR          = .10098E-2
MEAN_MOTION_DOT = .761E-3
MEAN_MOTION_DDOT = 0

CCSDS_OMM_VERS = 2.0
CREATION_DATE  = 
ORIGINATOR     = 

OBJECT_NAME    = COSMOS 2058
OBJECT_ID      = 1990-010A
CENTER_NAME    = EARTH
REF_FRAME      = TEME
TIME_SYSTEM    = UTC
MEAN_ELEMENT_THEORY = SGP/SGP4

EPOCH          = 2026-02-07T04:32:10.658400
MEAN_MOTION    = 15.11040033
ECCENTRICITY   = .0012077
INCLINATION    = 82.4636
RA_OF_ASC_NODE = 77.4750
ARG_OF_PERICENTER = 82.1778
MEAN_ANOMALY   = 278.0822

EPHEMERIS_TYPE = 0
CLASSIFICATION_TYPE = U
NORAD_CAT_ID   = 20465
ELEMENT_SET_NO = 999
REV_AT_EPOCH   = 93763
BSTAR          = .30481E-3
MEAN_MOTION_DOT = .5131E-4
MEAN_MOTION_DDOT = 0

CCSDS_OMM_VERS = 2.0
CREATION_DATE  = 
ORIGINATOR     = 

OBJECT_NAME    = SL-14 R/B
OBJECT_ID      = 1990-010B
CENTER_NAME    = EARTH
REF_FRAME      = TEME
TIME_SYSTEM    = UTC
MEAN_ELEMENT_THEORY = SGP/SGP4

EPOCH          = 2026-02-07T03:12:01.047744
MEAN_MOTION    = 14.83542188
ECCENTRICITY   = .0020923
INCLINATION    = 82.5030
RA_OF_ASC_NODE = 296.0916
ARG_OF_PERICENTER = 43.7911
MEAN_ANOMALY   = 316.4958

EPHEMERIS_TYPE = 0
CLASSIFICATION_TYPE = U
NORAD_CAT_ID   = 20466
ELEMENT_SET_NO = 999
REV_AT_EPOCH   = 92395
BSTAR          = .752E-4
MEAN_MOTION_DOT = .645E-5
MEAN_MOTION_DDOT = 0

CCSDS_OMM_VERS = 2.0
CREATION_DATE  = 
ORIGINATOR     = 

OBJECT_NAME    = SL-14 R/B
OBJECT_ID      = 1990-018B
CENTER_NAME    = EARTH
REF_FRAME      = TEME
TIME_SYSTEM    = UTC
MEAN_ELEMENT_THEORY = SGP/SGP4

EPOCH          = 2026-02-07T04:32:25.024128
MEAN_MOTION    = 14.82113295
ECCENTRICITY   = .0016094
INCLINATION    = 82.5182
RA_OF_ASC_NODE = 251.6048
ARG_OF_PERICENTER = 187.5334
MEAN_ANOMALY   = 172.5641

EPHEMERIS_TYPE = 0
CLASSIFICATION_TYPE = U
NORAD_CAT_ID   = 20511
ELEMENT_SET_NO = 999
REV_AT_EPOCH   = 91806
BSTAR          = .64565E-4
MEAN_MOTION_DOT = .538E-5
MEAN_MOTION_DDOT = 0

CCSDS_OMM_VERS = 2.0
CREATION_DATE  = 
ORIGINATOR     = 

OBJECT_NAME    = HST
OBJECT_ID      = 1990-037B
CENTER_NAME    = EARTH
REF_FRAME      = TEME
TIME_SYSTEM    = UTC
MEAN_ELEMENT_THEORY = SGP/SGP4

EPOCH          = 2026-02-06T19:31:08.679360
MEAN_MOTION    = 15.28986369
ECCENTRICITY   = .0001883
INCLINATION    = 28.4665
RA_OF_ASC_NODE = 250.5538
ARG_OF_PERICENTER = 124.2340
MEAN_ANOMALY   = 235.8434

EPHEMERIS_TYPE = 0
CLASSIFICATION_TYPE = U
NORAD_CAT_ID   = 20580
ELEMENT_SET_NO = 999
REV_AT_EPOCH   = 76858
BSTAR          = .28897E-3
MEAN_MOTION_DOT = .8603E-4
MEAN_MOTION_DDOT = 0

CCSDS_OMM_VERS = 2.0
CREATION_DATE  = 
ORIGINATOR     = 

OBJECT_NAME    = SL-16 R/B
OBJECT_ID      = 1990-046B
CENTER_NAME    = EARTH
REF_FRAME      = TEME
TIME_SYSTEM    = UTC
MEAN_ELEMENT_THEORY = SGP/SGP4

EPOCH          = 2026-02-07T03:47:59.897760
MEAN_MOTION    = 14.15005540
ECCENTRICITY   = .0014613
INCLINATION    = 71.0000
RA_OF_ASC_NODE = 2.0319
ARG_OF_PERICENTER = 342.0403
MEAN_ANOMALY   = 18.0202

EPHEMERIS_TYPE = 0
CLASSIFICATION_TYPE = U
NORAD_CAT_ID   = 20625
ELEMENT_SET_NO = 999
REV_AT_EPOCH   = 84407
BSTAR          = .91113E-4
MEAN_MOTION_DOT = .129E-5
MEAN_MOTION_DDOT = 0

CCSDS_OMM_VERS = 2.0
CREATION_DATE  = 
ORIGINATOR     = 

OBJECT_NAME    = COSMOS 2084
OBJECT_ID      = 1990-055A
CENTER_NAME    = EARTH
REF_FRAME      = TEME
TIME_SYSTEM    = UTC
MEAN_ELEMENT_THEORY = SGP/SGP4

EPOCH          = 2026-02-07T04:03:38.365920
MEAN_MOTION    = 15.05453600
ECCENTRICITY   = .0021936
INCLINATION    = 62.7897
RA_OF_ASC_NODE = 79.6572
ARG_OF_PERICENTER = 183.6977
MEAN_ANOMALY   = 176.3965

EPHEMERIS_TYPE = 0
CLASSIFICATION_TYPE = U
NORAD_CAT_ID   = 20663
ELEMENT_SET_NO = 999
REV_AT_EPOCH   = 93172
BSTAR          = .24701E-3
MEAN_MOTION_DOT = .3381E-4
MEAN_MOTION_DDOT = 0

CCSDS_OMM_VERS = 2.0
CREATION_DATE  = 
ORIGINATOR     = 

OBJECT_NAME    = SL-6 R/B(2)
OBJECT_ID      = 1990-055D
CENTER_NAME    = EARTH
REF_FRAME      = TEME
TIME_SYSTEM    = UTC
MEAN_ELEMENT_THEORY = SGP/SGP4

EPOCH          = 2026-02-07T04:15:01.128960
MEAN_MOTION    = 15.03432264
ECCENTRICITY   = .0020202
INCLINATION    = 62.7853
RA_OF_ASC_NODE = 357.5995
ARG_OF_PERICENTER = 338.2431
MEAN_ANOMALY   = 21.7808

EPHEMERIS_TYPE = 0
CLASSIFICATION_TYPE = U
NORAD_CAT_ID   = 20666
ELEMENT_SET_NO = 999
REV_AT_EPOCH   = 93360
BSTAR          = .28318E-3
MEAN_MOTION_DOT = .3691E-4
MEAN_MOTION_DDOT = 0

CCSDS_OMM_VERS = 2.0
CREATION_DATE  = 
ORIGINATOR     = 

OBJECT_NAME    = SL-8 R/B
OBJECT_ID      = 1990-078B
CENTER_NAME    = EARTH
REF_FRAME      = TEME
TIME_SYSTEM    = UTC
MEAN_ELEMENT_THEORY = SGP/SGP4

EPOCH          = 2026-02-07T02:59:00.303648
MEAN_MOTION    = 14.88052929
ECCENTRICITY   = .03672
INCLINATION    = 82.9020
RA_OF_ASC_NODE = 278.7760
ARG_OF_PERICENTER = 116.4027
MEAN_ANOMALY   = 247.5372

EPHEMERIS_TYPE = 0
CLASSIFICATION_TYPE = U
NORAD_CAT_ID   = 20775
ELEMENT_SET_NO = 999
REV_AT_EPOCH   = 80475
BSTAR          = .55994E-3
MEAN_MOTION_DOT = .18978E-3
MEAN_MOTION_DDOT = 0

CCSDS_OMM_VERS = 2.0
CREATION_DATE  = 
ORIGINATOR     = 

OBJECT_NAME    = SL-8 R/B
OBJECT_ID      = 1991-006B
CENTER_NAME    = EARTH
REF_FRAME      = TEME
TIME_SYSTEM    = UTC
MEAN_ELEMENT_THEORY = SGP/SGP4

EPOCH          = 2026-02-06T23:36:31.900320
MEAN_MOTION    = 13.77491992
ECCENTRICITY   = .0023545
INCLINATION    = 82.9428
RA_OF_ASC_NODE = 192.8748
ARG_OF_PERICENTER = 119.9931
MEAN_ANOMALY   = 0.8838

EPHEMERIS_TYPE = 0
CLASSIFICATION_TYPE = U
NORAD_CAT_ID   = 21088
ELEMENT_SET_NO = 999
REV_AT_EPOCH   = 75984
BSTAR          = .10144E-4
MEAN_MOTION_DOT = .26E-6
MEAN_MOTION_DDOT = 0

CCSDS_OMM_VERS = 2.0
CREATION_DATE  = 
ORIGINATOR     = 

OBJECT_NAME    = OKEAN-3
OBJECT_ID      = 1991-039A
CENTER_NAME    = EARTH
REF_FRAME      = TEME
TIME_SYSTEM    = UTC
MEAN_ELEMENT_THEORY = SGP/SGP4

EPOCH          = 2026-02-06T22:55:59.306592
MEAN_MOTION    = 15.04560231
ECCENTRICITY   = .0016497
INCLINATION    = 82.5182
RA_OF_ASC_NODE = 6.6087
ARG_OF_PERICENTER = 77.5893
MEAN_ANOMALY   = 282.7178

EPHEMERIS_TYPE = 0
CLASSIFICATION_TYPE = U
NORAD_CAT_ID   = 21397
ELEMENT_SET_NO = 999
REV_AT_EPOCH   = 86041
BSTAR          = .32262E-3
MEAN_MOTION_DOT = .4563E-4
MEAN_MOTION_DDOT = 0

CCSDS_OMM_VERS = 2.0
CREATION_DATE  = 
ORIGINATOR     = 

OBJECT_NAME    = COSMOS 2151
OBJECT_ID      = 1991-042A
CENTER_NAME    = EARTH
REF_FRAME      = TEME
TIME_SYSTEM    = UTC
MEAN_ELEMENT_THEORY = SGP/SGP4

EPOCH          = 2026-02-07T04:45:47.043360
MEAN_MOTION    = 14.99987219
ECCENTRICITY   = .0013164
INCLINATION    = 82.4964
RA_OF_ASC_NODE = 113.0885
ARG_OF_PERICENTER = 156.3093
MEAN_ANOMALY   = 203.8740

EPHEMERIS_TYPE = 0
CLASSIFICATION_TYPE = U
NORAD_CAT_ID   = 21422
ELEMENT_SET_NO = 999
REV_AT_EPOCH   = 85862
BSTAR          = .21587E-3
MEAN_MOTION_DOT = .2713E-4
MEAN_MOTION_DDOT = 0

