DELTA 2 R/B(1)          
1 20453U 90008B   26038.04700079  .00076100  00000+0  10098-2 0  9990
2 20453  35.6060  15.2946 0095330 332.8975  26.6804 15.51735671921368
COSMOS 2058             
1 20465U 90010A   26038.18901225  .00005131  00000+0  30481-3 0  9992
2 20465  82.4636  77.4750 0012077  82.1778 278.0822 15.11040033937633
SL-14 R/B               
1 20466U 90010B   26038.13334546  .00000645  00000+0  75200-4 0  9998
2 20466  82.5030 296.0916 0020923  43.7911 316.4958 14.83542188923950
SL-14 R/B               
1 20511U 90018B   26038.18917852  .00000538  00000+0  64565-4 0  9992
2 20511  82.5182 251.6048 0016094 187.5334 172.5641 14.82113295918060
HST                     
1 20580U 90037B   26037.81329490  .00008603  00000+0  28897-3 0  9991
2 20580  28.4665 250.5538 0001883 124.2340 235.8434 15.28986369768582
SL-16 R/B               
1 20625U 90046B   26038.15833215  .00000129  00000+0  91113-4 0  9991
2 20625  71.0000   2.0319 0014613 342.0403  18.0202 14.15005540844072
COSMOS 2084             
1 20663U 90055A   26038.16919405  .00003381  00000+0  24701-3 0  9991
2 20663  62.7897  79.6572 0021936 183.6977 176.3965 15.05453600931724
SL-6 R/B(2)             
1 20666U 90055D   26038.17709640  .00003691  00000+0  28318-3 0  9995
2 20666  62.7853 357.5995 0020202 338.2431  21.7808 15.03432264933603
SL-8 R/B                
1 20775U 90078B   26038.12430907  .00018978  00000+0  55994-3 0  9997
2 20775  82.9020 278.7760 0367200 116.4027 247.5372 14.88052929804752
SL-8 R/B                
1 21088U 91006B   26037.98370255  .00000026  00000+0  10144-4 0  9993
2 21088  82.9428 192.8748 0023545 119.9931   0.8838 13.77491992759847
OKEAN-3                 
1 21397U 91039A   26037.95554753  .00004563  00000+0  32262-3 0  9990
2 21397  82.5182   6.6087 0016497  77.5893 282.7178 15.04560231860414
COSMOS 2151             
1 21422U 91042A   26038.19846115  .00002713  00000+0  21587-3 0  9999
2 21422  82.4964 113.0885 0013164 156.3093 203.8740 14.99987219858626
